[{"OBJECT_NAME":"FENGYUN 1C DEB","OBJECT_ID":"1999-025CXM","EPOCH":"2024-10-28T07:27:39.552480","MEAN_MOTION":14.32182336,"ECCENTRICITY":0.0059229,"INCLINATION":100.3677,"RA_OF_ASC_NODE":71.5034,"ARG_OF_PERICENTER":116.2448,"MEAN_ANOMALY":244.4833,"EPHEMERIS_TYPE":0,"CLASSIFICATION_TYPE":"U","NORAD_CAT_ID":32320,"ELEMENT_SET_NO":999,"REV_AT_EPOCH":56288,"BSTAR":0.0051855,"MEAN_MOTION_DOT":0.00014211,"MEAN_MOTION_DDOT":0},{"OBJECT_NAME":"FENGYUN 1C DEB","OBJECT_ID":"1999-025CXP","EPOCH":"2024-10-16T03:10:05.127456","MEAN_MOTION":13.32793007,"ECCENTRICITY":0.0424481,"INCLINATION":98.3683,"RA_OF_ASC_NODE":241.8408,"ARG_OF_PERICENTER":82.929,"MEAN_ANOMALY":281.9901,"EPHEMERIS_TYPE":0,"CLASSIFICATION_TYPE":"U","NORAD_CAT_ID":32322,"ELEMENT_SET_NO":999,"REV_AT_EPOCH":83798,"BSTAR":0.0029093,"MEAN_MOTION_DOT":2.322e-5,"MEAN_MOTION_DDOT":0},{"OBJECT_NAME":"FENGYUN 1C DEB","OBJECT_ID":"1999-025CXQ","EPOCH":"2024-10-06T22:11:43.195200","MEAN_MOTION":13.90632648,"ECCENTRICITY":0.016454,"INCLINATION":98.5534,"RA_OF_ASC_NODE":89.4154,"ARG_OF_PERICENTER":327.0945,"MEAN_ANOMALY":32.0055,"EPHEMERIS_TYPE":0,"CLASSIFICATION_TYPE":"U","NORAD_CAT_ID":32323,"ELEMENT_SET_NO":999,"REV_AT_EPOCH":86788,"BSTAR":0.0083632,"MEAN_MOTION_DOT":0.00011607,"MEAN_MOTION_DDOT":0},{"OBJECT_NAME":"FENGYUN 1C DEB","OBJECT_ID":"1999-025CXR","EPOCH":"2024-10-28T11:08:40.100064","MEAN_MOTION":14.07978198,"ECCENTRICITY":0.0051586,"INCLINATION":99.5475,"RA_OF_ASC_NODE":14.9177,"ARG_OF_PERICENTER":74.9135,"MEAN_ANOMALY":285.7732,"EPHEMERIS_TYPE":0,"CLASSIFICATION_TYPE":"U","NORAD_CAT_ID":32324,"ELEMENT_SET_NO":999,"REV_AT_EPOCH":58222,"BSTAR":0.0017047,"MEAN_MOTION_DOT":2.885e-5,"MEAN_MOTION_DDOT":0},{"OBJECT_NAME":"FENGYUN 1C DEB","OBJECT_ID":"1999-025CXT","EPOCH":"2024-10-20T09:18:45.480096","MEAN_MOTION":13.67842267,"ECCENTRICITY":0.0390619,"INCLINATION":98.4464,"RA_OF_ASC_NODE":267.4708,"ARG_OF_PERICENTER":176.3594,"MEAN_ANOMALY":184.0548,"EPHEMERIS_TYPE":0,"CLASSIFICATION_TYPE":"U","NORAD_CAT_ID":32326,"ELEMENT_SET_NO":999,"REV_AT_EPOCH":57459,"BSTAR":0.0020512,"MEAN_MOTION_DOT":2.923e-5,"MEAN_MOTION_DDOT":0},{"OBJECT_NAME":"FENGYUN 1C DEB","OBJECT_ID":"1999-025CXY","EPOCH":"2024-10-27T06:07:12.291168","MEAN_MOTION":14.43681767,"ECCENTRICITY":0.0026007,"INCLINATION":99.1938,"RA_OF_ASC_NODE":220.1859,"ARG_OF_PERICENTER":306.3926,"MEAN_ANOMALY":53.4863,"EPHEMERIS_TYPE":0,"CLASSIFICATION_TYPE":"U","NORAD_CAT_ID":32331,"ELEMENT_SET_NO":999,"REV_AT_EPOCH":54624,"BSTAR":0.019347,"MEAN_MOTION_DOT":0.00066587,"MEAN_MOTION_DDOT":0},{"OBJECT_NAME":"FENGYUN 1C DEB","OBJECT_ID":"1999-025CXZ","EPOCH":"2024-10-27T09:52:55.297632","MEAN_MOTION":13.93912883,"ECCENTRICITY":0.0294302,"INCLINATION":99.1663,"RA_OF_ASC_NODE":351.7524,"ARG_OF_PERICENTER":358.4103,"MEAN_ANOMALY":1.6095,"EPHEMERIS_TYPE":0,"CLASSIFICATION_TYPE":"U","NORAD_CAT_ID":32332,"ELEMENT_SET_NO":999,"REV_AT_EPOCH":87400,"BSTAR":0.0035636,"MEAN_MOTION_DOT":6.697e-5,"MEAN_MOTION_DDOT":0},{"OBJECT_NAME":"FENGYUN 1C DEB","OBJECT_ID":"1999-025CYB","EPOCH":"2024-10-26T20:18:55.746720","MEAN_MOTION":14.00775995,"ECCENTRICITY":0.0063972,"INCLINATION":99.2958,"RA_OF_ASC_NODE":342.7002,"ARG_OF_PERICENTER":329.2925,"MEAN_ANOMALY":30.4502,"EPHEMERIS_TYPE":0,"CLASSIFICATION_TYPE":"U","NORAD_CAT_ID":32334,"ELEMENT_SET_NO":999,"REV_AT_EPOCH":88171,"BSTAR":0.0012205,"MEAN_MOTION_DOT":1.807e-5,"MEAN_MOTION_DDOT":0},{"OBJECT_NAME":"FENGYUN 1C DEB","OBJECT_ID":"1999-025CYF","EPOCH":"2024-10-08T08:14:59.803008","MEAN_MOTION":14.44136254,"ECCENTRICITY":0.0060174,"INCLINATION":98.9134,"RA_OF_ASC_NODE":143.5705,"ARG_OF_PERICENTER":155.5425,"MEAN_ANOMALY":204.864,"EPHEMERIS_TYPE":0,"CLASSIFICATION_TYPE":"U","NORAD_CAT_ID":32338,"ELEMENT_SET_NO":999,"REV_AT_EPOCH":58906,"BSTAR":0.027906,"MEAN_MOTION_DOT":0.00099172,"MEAN_MOTION_DDOT":0},{"OBJECT_NAME":"FENGYUN 1C DEB","OBJECT_ID":"1999-025CYH","EPOCH":"2024-10-27T15:08:50.396640","MEAN_MOTION":14.56787477,"ECCENTRICITY":0.0050492,"INCLINATION":98.9658,"RA_OF_ASC_NODE":262.8407,"ARG_OF_PERICENTER":114.8476,"MEAN_ANOMALY":245.7982,"EPHEMERIS_TYPE":0,"CLASSIFICATION_TYPE":"U","NORAD_CAT_ID":32340,"ELEMENT_SET_NO":999,"REV_AT_EPOCH":91170,"BSTAR":0.0086279,"MEAN_MOTION_DOT":0.00039456,"MEAN_MOTION_DDOT":0},{"OBJECT_NAME":"FENGYUN 1C DEB","OBJECT_ID":"1999-025CYK","EPOCH":"2024-10-28T19:31:01.896960","MEAN_MOTION":14.13130161,"ECCENTRICITY":0.0008866,"INCLINATION":98.6867,"RA_OF_ASC_NODE":317.7819,"ARG_OF_PERICENTER":74.9024,"MEAN_ANOMALY":99.4392,"EPHEMERIS_TYPE":0,"CLASSIFICATION_TYPE":"U","NORAD_CAT_ID":32342,"ELEMENT_SET_NO":999,"REV_AT_EPOCH":87927,"BSTAR":0.000396,"MEAN_MOTION_DOT":6.98e-6,"MEAN_MOTION_DDOT":0},{"OBJECT_NAME":"FENGYUN 1C DEB","OBJECT_ID":"1999-025CYL","EPOCH":"2024-10-18T05:21:41.122368","MEAN_MOTION":14.18639534,"ECCENTRICITY":0.015229,"INCLINATION":98.5788,"RA_OF_ASC_NODE":285.3684,"ARG_OF_PERICENTER":262.7351,"MEAN_ANOMALY":95.6493,"EPHEMERIS_TYPE":0,"CLASSIFICATION_TYPE":"U","NORAD_CAT_ID":32343,"ELEMENT_SET_NO":999,"REV_AT_EPOCH":58748,"BSTAR":0.0015003,"MEAN_MOTION_DOT":3.447e-5,"MEAN_MOTION_DDOT":0},{"OBJECT_NAME":"FENGYUN 1C DEB","OBJECT_ID":"1999-025CYT","EPOCH":"2024-10-27T09:53:33.617760","MEAN_MOTION":14.4664947,"ECCENTRICITY":0.0287402,"INCLINATION":98.2827,"RA_OF_ASC_NODE":347.7996,"ARG_OF_PERICENTER":120.8119,"MEAN_ANOMALY":242.1697,"EPHEMERIS_TYPE":0,"CLASSIFICATION_TYPE":"U","NORAD_CAT_ID":32350,"ELEMENT_SET_NO":999,"REV_AT_EPOCH":91566,"BSTAR":0.0029871,"MEAN_MOTION_DOT":0.00018105,"MEAN_MOTION_DDOT":0},{"OBJECT_NAME":"FENGYUN 1C DEB","OBJECT_ID":"1999-025CYV","EPOCH":"2024-10-26T00:09:04.568832","MEAN_MOTION":14.39865433,"ECCENTRICITY":0.0124595,"INCLINATION":98.7802,"RA_OF_ASC_NODE":203.1637,"ARG_OF_PERICENTER":319.8952,"MEAN_ANOMALY":39.3087,"EPHEMERIS_TYPE":0,"CLASSIFICATION_TYPE":"U","NORAD_CAT_ID":32352,"ELEMENT_SET_NO":999,"REV_AT_EPOCH":59326,"BSTAR":0.0012255,"MEAN_MOTION_DOT":4.168e-5,"MEAN_MOTION_DDOT":0},{"OBJECT_NAME":"FENGYUN 1C DEB","OBJECT_ID":"1999-025CYW","EPOCH":"2024-10-28T05:37:41.039328","MEAN_MOTION":13.98629105,"ECCENTRICITY":0.0132607,"INCLINATION":98.9136,"RA_OF_ASC_NODE":121.7656,"ARG_OF_PERICENTER":260.2056,"MEAN_ANOMALY":98.4113,"EPHEMERIS_TYPE":0,"CLASSIFICATION_TYPE":"U","NORAD_CAT_ID":32353,"ELEMENT_SET_NO":999,"REV_AT_EPOCH":57443,"BSTAR":0.009786,"MEAN_MOTION_DOT":0.00015129,"MEAN_MOTION_DDOT":0},{"OBJECT_NAME":"FENGYUN 1C DEB","OBJECT_ID":"1999-025CYY","EPOCH":"2024-10-25T17:05:28.197024","MEAN_MOTION":14.62364271,"ECCENTRICITY":0.0090564,"INCLINATION":100.3794,"RA_OF_ASC_NODE":95.5496,"ARG_OF_PERICENTER":240.2276,"MEAN_ANOMALY":130.6998,"EPHEMERIS_TYPE":0,"CLASSIFICATION_TYPE":"U","NORAD_CAT_ID":32355,"ELEMENT_SET_NO":999,"REV_AT_EPOCH":58844,"BSTAR":0.012639,"MEAN_MOTION_DOT":0.00068335,"MEAN_MOTION_DDOT":0},{"OBJECT_NAME":"FENGYUN 1C DEB","OBJECT_ID":"1999-025CYZ","EPOCH":"2024-10-28T21:37:38.798400","MEAN_MOTION":13.9889388,"ECCENTRICITY":0.0132181,"INCLINATION":102.4935,"RA_OF_ASC_NODE":9.594,"ARG_OF_PERICENTER":287.461,"MEAN_ANOMALY":71.2129,"EPHEMERIS_TYPE":0,"CLASSIFICATION_TYPE":"U","NORAD_CAT_ID":32356,"ELEMENT_SET_NO":999,"REV_AT_EPOCH":62646,"BSTAR":0.0083746,"MEAN_MOTION_DOT":0.00012972,"MEAN_MOTION_DDOT":0},{"OBJECT_NAME":"FENGYUN 1C DEB","OBJECT_ID":"1999-025CZA","EPOCH":"2024-10-09T23:17:30.685056","MEAN_MOTION":13.61042801,"ECCENTRICITY":0.051759,"INCLINATION":98.9092,"RA_OF_ASC_NODE":351.2008,"ARG_OF_PERICENTER":235.556,"MEAN_ANOMALY":307.1079,"EPHEMERIS_TYPE":0,"CLASSIFICATION_TYPE":"U","NORAD_CAT_ID":32357,"ELEMENT_SET_NO":999,"REV_AT_EPOCH":85008,"BSTAR":0.011444,"MEAN_MOTION_DOT":0.00021361,"MEAN_MOTION_DDOT":0},{"OBJECT_NAME":"FENGYUN 1C DEB","OBJECT_ID":"1999-025CZD","EPOCH":"2024-10-28T13:33:44.503488","MEAN_MOTION":13.92554551,"ECCENTRICITY":0.0248873,"INCLINATION":98.1215,"RA_OF_ASC_NODE":162.0219,"ARG_OF_PERICENTER":23.722,"MEAN_ANOMALY":337.5186,"EPHEMERIS_TYPE":0,"CLASSIFICATION_TYPE":"U","NORAD_CAT_ID":32360,"ELEMENT_SET_NO":999,"REV_AT_EPOCH":87424,"BSTAR":0.0089637,"MEAN_MOTION_DOT":0.00014888,"MEAN_MOTION_DDOT":0},{"OBJECT_NAME":"FENGYUN 1C DEB","OBJECT_ID":"1999-025CZE","EPOCH":"2024-09-29T13:55:04.920384","MEAN_MOTION":14.4107677,"ECCENTRICITY":0.0053389,"INCLINATION":98.899,"RA_OF_ASC_NODE":305.4623,"ARG_OF_PERICENTER":277.7797,"MEAN_ANOMALY":236.7302,"EPHEMERIS_TYPE":0,"CLASSIFICATION_TYPE":"U","NORAD_CAT_ID":32361,"ELEMENT_SET_NO":999,"REV_AT_EPOCH":90261,"BSTAR":0.0049596,"MEAN_MOTION_DOT":0.00016228,"MEAN_MOTION_DDOT":0},{"OBJECT_NAME":"FENGYUN 1C DEB","OBJECT_ID":"1999-025CZF","EPOCH":"2024-10-28T03:44:39.036768","MEAN_MOTION":13.61499894,"ECCENTRICITY":0.0283589,"INCLINATION":99.8326,"RA_OF_ASC_NODE":262.5283,"ARG_OF_PERICENTER":245.6125,"MEAN_ANOMALY":111.5179,"EPHEMERIS_TYPE":0,"CLASSIFICATION_TYPE":"U","NORAD_CAT_ID":32362,"ELEMENT_SET_NO":999,"REV_AT_EPOCH":85534,"BSTAR":0.0097514,"MEAN_MOTION_DOT":9.709e-5,"MEAN_MOTION_DDOT":0},{"OBJECT_NAME":"FENGYUN 1C DEB","OBJECT_ID":"1999-025CZG","EPOCH":"2024-10-25T17:18:36.473472","MEAN_MOTION":15.02213388,"ECCENTRICITY":0.0150939,"INCLINATION":98.3175,"RA_OF_ASC_NODE":208.5434,"ARG_OF_PERICENTER":117.4936,"MEAN_ANOMALY":244.1722,"EPHEMERIS_TYPE":0,"CLASSIFICATION_TYPE":"U","NORAD_CAT_ID":32363,"ELEMENT_SET_NO":999,"REV_AT_EPOCH":91462,"BSTAR":0.0018538,"MEAN_MOTION_DOT":0.0003133,"MEAN_MOTION_DDOT":0},{"OBJECT_NAME":"FENGYUN 1C DEB","OBJECT_ID":"1999-025CZH","EPOCH":"2024-10-04T20:17:08.211552","MEAN_MOTION":14.09267902,"ECCENTRICITY":0.0140449,"INCLINATION":98.3439,"RA_OF_ASC_NODE":141.8693,"ARG_OF_PERICENTER":352.2382,"MEAN_ANOMALY":7.6616,"EPHEMERIS_TYPE":0,"CLASSIFICATION_TYPE":"U","NORAD_CAT_ID":32364,"ELEMENT_SET_NO":999,"REV_AT_EPOCH":57584,"BSTAR":0.0097691,"MEAN_MOTION_DOT":0.00018629,"MEAN_MOTION_DDOT":0}]